IRIDIUM 119             
1 42959U 17061E   25103.84100363  .00000524  00000+0  18021-3 0  9995
2 42959  86.4035 204.6337 0001984  91.2289 268.9134 14.34218326393276
IRIDIUM 107             
1 42960U 17061F   25104.20887375  .00000592  00000+0  20444-3 0  9990
2 42960  86.4036 204.4987 0001690 100.9932 259.1454 14.34217775393347
IRIDIUM 132             
1 42961U 17061G   25103.72683706  .00000096  00000+0  27306-4 0  9993
2 42961  86.4034 204.6826 0001980  97.5224 262.6196 14.34218180393261
IRIDIUM 136             
1 42962U 17061H   25103.68878618  .00000589  00000+0  20339-3 0  9992
2 42962  86.4034 204.7029 0001964  91.2355 268.9066 14.34217720393271
IRIDIUM 139             
1 42963U 17061J   25103.76489267  .00000588  00000+0  20299-3 0  9994
2 42963  86.4036 204.7261 0001949  97.6441 262.4976 14.34218093393296
IRIDIUM 125             
1 42964U 17061K   25103.68243852  .00000208  00000+0  67344-4 0  9996
2 42964  86.4039 204.8137 0001803  84.2273 275.9128 14.34217922393295
IRIDIUM 135             
1 43070U 17083A   25104.00540436  .00000603  00000+0  20830-3 0  9991
2 43070  86.3968 141.4476 0002470  95.2682 264.8795 14.34215909382639
IRIDIUM 138             
1 43071U 17083B   25103.61216717  .00000429  00000+0  14606-3 0  9990
2 43071  86.3956 141.2914 0002412  80.5256 279.6212 14.34216637382561
