<?xml version="1.0" encoding="UTF-8"?>
<ndm xmlns:xsi="http://www.w3.org/2001/XMLSchema-instance" xsi:noNamespaceSchemaLocation="https://sanaregistry.org/r/ndmxml_unqualified/ndmxml-2.0.0-master-2.0.xsd">
<omm id="CCSDS_OMM_VERS" version="2.0">
<header><CREATION_DATE/><ORIGINATOR/></header><body><segment><metadata><OBJECT_NAME>IRIDIUM 119</OBJECT_NAME><OBJECT_ID>2017-061E</OBJECT_ID><CENTER_NAME>EARTH</CENTER_NAME><REF_FRAME>TEME</REF_FRAME><TIME_SYSTEM>UTC</TIME_SYSTEM><MEAN_ELEMENT_THEORY>SGP4</MEAN_ELEMENT_THEORY></metadata><data><meanElements><EPOCH>2025-04-13T20:11:02.713632</EPOCH><MEAN_MOTION>14.34218326</MEAN_MOTION><ECCENTRICITY>.0001984</ECCENTRICITY><INCLINATION>86.4035</INCLINATION><RA_OF_ASC_NODE>204.6337</RA_OF_ASC_NODE><ARG_OF_PERICENTER>91.2289</ARG_OF_PERICENTER><MEAN_ANOMALY>268.9134</MEAN_ANOMALY></meanElements><tleParameters><EPHEMERIS_TYPE>0</EPHEMERIS_TYPE><CLASSIFICATION_TYPE>U</CLASSIFICATION_TYPE><NORAD_CAT_ID>42959</NORAD_CAT_ID><ELEMENT_SET_NO>999</ELEMENT_SET_NO><REV_AT_EPOCH>39327</REV_AT_EPOCH><BSTAR>.18021E-3</BSTAR><MEAN_MOTION_DOT>.524E-5</MEAN_MOTION_DOT><MEAN_MOTION_DDOT>0</MEAN_MOTION_DDOT></tleParameters></data></segment></body></omm>
<omm id="CCSDS_OMM_VERS" version="2.0">
<header><CREATION_DATE/><ORIGINATOR/></header><body><segment><metadata><OBJECT_NAME>IRIDIUM 107</OBJECT_NAME><OBJECT_ID>2017-061F</OBJECT_ID><CENTER_NAME>EARTH</CENTER_NAME><REF_FRAME>TEME</REF_FRAME><TIME_SYSTEM>UTC</TIME_SYSTEM><MEAN_ELEMENT_THEORY>SGP4</MEAN_ELEMENT_THEORY></metadata><data><meanElements><EPOCH>2025-04-14T05:00:46.692000</EPOCH><MEAN_MOTION>14.34217775</MEAN_MOTION><ECCENTRICITY>.000169</ECCENTRICITY><INCLINATION>86.4036</INCLINATION><RA_OF_ASC_NODE>204.4987</RA_OF_ASC_NODE><ARG_OF_PERICENTER>100.9932</ARG_OF_PERICENTER><MEAN_ANOMALY>259.1454</MEAN_ANOMALY></meanElements><tleParameters><EPHEMERIS_TYPE>0</EPHEMERIS_TYPE><CLASSIFICATION_TYPE>U</CLASSIFICATION_TYPE><NORAD_CAT_ID>42960</NORAD_CAT_ID><ELEMENT_SET_NO>999</ELEMENT_SET_NO><REV_AT_EPOCH>39334</REV_AT_EPOCH><BSTAR>.20444E-3</BSTAR><MEAN_MOTION_DOT>.592E-5</MEAN_MOTION_DOT><MEAN_MOTION_DDOT>0</MEAN_MOTION_DDOT></tleParameters></data></segment></body></omm>
<omm id="CCSDS_OMM_VERS" version="2.0">
<header><CREATION_DATE/><ORIGINATOR/></header><body><segment><metadata><OBJECT_NAME>IRIDIUM 132</OBJECT_NAME><OBJECT_ID>2017-061G</OBJECT_ID><CENTER_NAME>EARTH</CENTER_NAME><REF_FRAME>TEME</REF_FRAME><TIME_SYSTEM>UTC</TIME_SYSTEM><MEAN_ELEMENT_THEORY>SGP4</MEAN_ELEMENT_THEORY></metadata><data><meanElements><EPOCH>2025-04-13T17:26:38.721984</EPOCH><MEAN_MOTION>14.34218180</MEAN_MOTION><ECCENTRICITY>.000198</ECCENTRICITY><INCLINATION>86.4034</INCLINATION><RA_OF_ASC_NODE>204.6826</RA_OF_ASC_NODE><ARG_OF_PERICENTER>97.5224</ARG_OF_PERICENTER><MEAN_ANOMALY>262.6196</MEAN_ANOMALY></meanElements><tleParameters><EPHEMERIS_TYPE>0</EPHEMERIS_TYPE><CLASSIFICATION_TYPE>U</CLASSIFICATION_TYPE><NORAD_CAT_ID>42961</NORAD_CAT_ID><ELEMENT_SET_NO>999</ELEMENT_SET_NO><REV_AT_EPOCH>39326</REV_AT_EPOCH><BSTAR>.27306E-4</BSTAR><MEAN_MOTION_DOT>.96E-6</MEAN_MOTION_DOT><MEAN_MOTION_DDOT>0</MEAN_MOTION_DDOT></tleParameters></data></segment></body></omm>
<omm id="CCSDS_OMM_VERS" version="2.0">
<header><CREATION_DATE/><ORIGINATOR/></header><body><segment><metadata><OBJECT_NAME>IRIDIUM 136</OBJECT_NAME><OBJECT_ID>2017-061H</OBJECT_ID><CENTER_NAME>EARTH</CENTER_NAME><REF_FRAME>TEME</REF_FRAME><TIME_SYSTEM>UTC</TIME_SYSTEM><MEAN_ELEMENT_THEORY>SGP4</MEAN_ELEMENT_THEORY></metadata><data><meanElements><EPOCH>2025-04-13T16:31:51.125952</EPOCH><MEAN_MOTION>14.34217720</MEAN_MOTION><ECCENTRICITY>.0001964</ECCENTRICITY><INCLINATION>86.4034</INCLINATION><RA_OF_ASC_NODE>204.7029</RA_OF_ASC_NODE><ARG_OF_PERICENTER>91.2355</ARG_OF_PERICENTER><MEAN_ANOMALY>268.9066</MEAN_ANOMALY></meanElements><tleParameters><EPHEMERIS_TYPE>0</EPHEMERIS_TYPE><CLASSIFICATION_TYPE>U</CLASSIFICATION_TYPE><NORAD_CAT_ID>42962</NORAD_CAT_ID><ELEMENT_SET_NO>999</ELEMENT_SET_NO><REV_AT_EPOCH>39327</REV_AT_EPOCH><BSTAR>.20339E-3</BSTAR><MEAN_MOTION_DOT>.589E-5</MEAN_MOTION_DOT><MEAN_MOTION_DDOT>0</MEAN_MOTION_DDOT></tleParameters></data></segment></body></omm>
<omm id="CCSDS_OMM_VERS" version="2.0">
<header><CREATION_DATE/><ORIGINATOR/></header><body><segment><metadata><OBJECT_NAME>IRIDIUM 139</OBJECT_NAME><OBJECT_ID>2017-061J</OBJECT_ID><CENTER_NAME>EARTH</CENTER_NAME><REF_FRAME>TEME</REF_FRAME><TIME_SYSTEM>UTC</TIME_SYSTEM><MEAN_ELEMENT_THEORY>SGP4</MEAN_ELEMENT_THEORY></metadata><data><meanElements><EPOCH>2025-04-13T18:21:26.726688</EPOCH><MEAN_MOTION>14.34218093</MEAN_MOTION><ECCENTRICITY>.0001949</ECCENTRICITY><INCLINATION>86.4036</INCLINATION><RA_OF_ASC_NODE>204.7261</RA_OF_ASC_NODE><ARG_OF_PERICENTER>97.6441</ARG_OF_PERICENTER><MEAN_ANOMALY>262.4976</MEAN_ANOMALY></meanElements><tleParameters><EPHEMERIS_TYPE>0</EPHEMERIS_TYPE><CLASSIFICATION_TYPE>U</CLASSIFICATION_TYPE><NORAD_CAT_ID>42963</NORAD_CAT_ID><ELEMENT_SET_NO>999</ELEMENT_SET_NO><REV_AT_EPOCH>39329</REV_AT_EPOCH><BSTAR>.20299E-3</BSTAR><MEAN_MOTION_DOT>.588E-5</MEAN_MOTION_DOT><MEAN_MOTION_DDOT>0</MEAN_MOTION_DDOT></tleParameters></data></segment></body></omm>
<omm id="CCSDS_OMM_VERS" version="2.0">
<header><CREATION_DATE/><ORIGINATOR/></header><body><segment><metadata><OBJECT_NAME>IRIDIUM 125</OBJECT_NAME><OBJECT_ID>2017-061K</OBJECT_ID><CENTER_NAME>EARTH</CENTER_NAME><REF_FRAME>TEME</REF_FRAME><TIME_SYSTEM>UTC</TIME_SYSTEM><MEAN_ELEMENT_THEORY>SGP4</MEAN_ELEMENT_THEORY></metadata><data><meanElements><EPOCH>2025-04-13T16:22:42.688128</EPOCH><MEAN_MOTION>14.34217922</MEAN_MOTION><ECCENTRICITY>.0001803</ECCENTRICITY><INCLINATION>86.4039</INCLINATION><RA_OF_ASC_NODE>204.8137</RA_OF_ASC_NODE><ARG_OF_PERICENTER>84.2273</ARG_OF_PERICENTER><MEAN_ANOMALY>275.9128</MEAN_ANOMALY></meanElements><tleParameters><EPHEMERIS_TYPE>0</EPHEMERIS_TYPE><CLASSIFICATION_TYPE>U</CLASSIFICATION_TYPE><NORAD_CAT_ID>42964</NORAD_CAT_ID><ELEMENT_SET_NO>999</ELEMENT_SET_NO><REV_AT_EPOCH>39329</REV_AT_EPOCH><BSTAR>.67344E-4</BSTAR><MEAN_MOTION_DOT>.208E-5</MEAN_MOTION_DOT><MEAN_MOTION_DDOT>0</MEAN_MOTION_DDOT></tleParameters></data></segment></body></omm>
<omm id="CCSDS_OMM_VERS" version="2.0">
<header><CREATION_DATE/><ORIGINATOR/></header><body><segment><metadata><OBJECT_NAME>IRIDIUM 135</OBJECT_NAME><OBJECT_ID>2017-083A</OBJECT_ID><CENTER_NAME>EARTH</CENTER_NAME><REF_FRAME>TEME</REF_FRAME><TIME_SYSTEM>UTC</TIME_SYSTEM><MEAN_ELEMENT_THEORY>SGP4</MEAN_ELEMENT_THEORY></metadata><data><meanElements><EPOCH>2025-04-14T00:07:46.936704</EPOCH><MEAN_MOTION>14.34215909</MEAN_MOTION><ECCENTRICITY>.000247</ECCENTRICITY><INCLINATION>86.3968</INCLINATION><RA_OF_ASC_NODE>141.4476</RA_OF_ASC_NODE><ARG_OF_PERICENTER>95.2682</ARG_OF_PERICENTER><MEAN_ANOMALY>264.8795</MEAN_ANOMALY></meanElements><tleParameters><EPHEMERIS_TYPE>0</EPHEMERIS_TYPE><CLASSIFICATION_TYPE>U</CLASSIFICATION_TYPE><NORAD_CAT_ID>43070</NORAD_CAT_ID><ELEMENT_SET_NO>999</ELEMENT_SET_NO><REV_AT_EPOCH>38263</REV_AT_EPOCH><BSTAR>.2083E-3</BSTAR><MEAN_MOTION_DOT>.603E-5</MEAN_MOTION_DOT><MEAN_MOTION_DDOT>0</MEAN_MOTION_DDOT></tleParameters></data></segment></body></omm>
<omm id="CCSDS_OMM_VERS" version="2.0">
<header><CREATION_DATE/><ORIGINATOR/></header><body><segment><metadata><OBJECT_NAME>IRIDIUM 138</OBJECT_NAME><OBJECT_ID>2017-083B</OBJECT_ID><CENTER_NAME>EARTH</CENTER_NAME><REF_FRAME>TEME</REF_FRAME><TIME_SYSTEM>UTC</TIME_SYSTEM><MEAN_ELEMENT_THEORY>SGP4</MEAN_ELEMENT_THEORY></metadata><data><meanElements><EPOCH>2025-04-13T14:41:31.243488</EPOCH><MEAN_MOTION>14.34216637</MEAN_MOTION><ECCENTRICITY>.0002412</ECCENTRICITY><INCLINATION>86.3956</INCLINATION><RA_OF_ASC_NODE>141.2914</RA_OF_ASC_NODE><ARG_OF_PERICENTER>80.5256</ARG_OF_PERICENTER><MEAN_ANOMALY>279.6212</MEAN_ANOMALY></meanElements><tleParameters><EPHEMERIS_TYPE>0</EPHEMERIS_TYPE><CLASSIFICATION_TYPE>U</CLASSIFICATION_TYPE><NORAD_CAT_ID>43071</NORAD_CAT_ID><ELEMENT_SET_NO>999</ELEMENT_SET_NO><REV_AT_EPOCH>38256</REV_AT_EPOCH><BSTAR>.14606E-3</BSTAR><MEAN_MOTION_DOT>.429E-5</MEAN_MOTION_DOT><MEAN_MOTION_DDOT>0</MEAN_MOTION_DDOT></tleParameters></data></segment></body></omm>

</ndm>
